DMSP 5D-3 F16 (USA 172) 
1 28054U 03048A   26192.77956132 -.00000033  00000+0  65557-5 0  9993
2 28054  98.9887 216.7698 0008189  79.6240 334.6991 14.14484847172968
METEOSAT-9 (MSG-2)      
1 28912U 05049B   26192.60902558  .00000121  00000+0  00000+0 0  9997
2 28912   9.4142  53.9220 0002036 357.2351 143.2739  1.00270356  7248
DMSP 5D-3 F17 (USA 191) 
1 29522U 06050A   26192.70648400 -.00000009  00000+0  17726-4 0  9996
2 29522  98.7385 198.7754 0009944 353.0944   7.0091 14.14995988 15895
FENGYUN 3A              
1 32958U 08026A   26192.78700838  .00000015  00000+0  27583-4 0  9998
2 32958  98.6887 133.1606 0009754  60.6639 299.5511 14.19576017938890
GOES 14                 
1 35491U 09033A   26192.69608872 -.00000352  00000+0  00000+0 0  9992
2 35491   1.7501  82.7380 0001880  39.9275 184.7708  1.00099857  6839
DMSP 5D-3 F18 (USA 210) 
1 35951U 09057A   26192.75013361  .00000170  00000+0  11123-3 0  9998
2 35951  98.9053 173.4677 0011019 175.1524 184.9758 14.14910183863068
EWS-G2 (GOES 15)        
1 36411U 10008A   26192.68674225  .00000026  00000+0  00000+0 0  9990
2 36411   1.3422  82.5088 0005206  53.5810 104.0827  1.00268167 59888
COMS 1                  
1 36744U 10032A   26192.34657965 -.00000239  00000+0  00000+0 0  9998
2 36744   4.8643  75.0643 0011264  14.7082 301.5980  0.99168841 51325
FENGYUN 3B              
1 37214U 10059A   26192.78477645  .00000224  00000+0  13882-3 0  9992
2 37214  98.9614 238.9018 0023060 115.8641   8.3407 14.14846827810909
SUOMI NPP               
1 37849U 11061A   26192.79916731  .00000020  00000+0  30711-4 0  9990
2 37849  98.7956 133.5077 0000612 236.8056 123.3061 14.19522216761937
METEOSAT-10 (MSG-3)     
1 38552U 12035B   26192.36225226 -.00000005  00000+0  00000+0 0  9996
2 38552   4.7262  60.8974 0001082  18.5599 340.2859  1.00270079 51090
METOP-B                 
1 38771U 12049A   26192.75603837  .00000046  00000+0  40641-4 0  9999
2 38771  98.6491 243.7635 0001054 276.8826  83.2232 14.21445767716751
INSAT-3D                
1 39216U 13038B   26192.71604866 -.00000336  00000+0  00000+0 0  9995
2 39216   1.9865  82.2311 0000504  83.8673 150.8211  1.00270103 47321
FENGYUN 3C              
1 39260U 13052A   26192.77948821  .00000023  00000+0  32625-4 0  9993
2 39260  98.4995 165.5271 0013818 316.4268  43.5815 14.15760315662041
METEOR-M 2              
1 40069U 14037A   26192.78205096 -.00000095  00000+0 -24241-4 0  9993
2 40069  98.5124 167.6505 0005360 338.1234  21.9714 14.21467863622813
HIMAWARI-8              
1 40267U 14060A   26192.73534267 -.00000271  00000+0  00000+0 0  9996
2 40267   0.0232 305.2214 0001045 223.4208 166.3807  1.00272623 43007
FENGYUN 2G              
1 40367U 14090A   26192.68087583 -.00000299  00000+0  00000+0 0  9998
2 40367   5.6967  72.5183 0004255 151.8575  49.6342  1.00261698 42242
METEOSAT-11 (MSG-4)     
1 40732U 15034A   26192.63807086  .00000063  00000+0  00000+0 0  9994
2 40732   3.2607  70.9573 0002246 352.6861 104.8543  1.00270750  7466
ELEKTRO-L 2             
1 41105U 15074A   26192.41948436 -.00000118  00000+0  00000+0 0  9996
2 41105   6.7510  70.2237 0000888 218.2194 137.3884  1.00272476 38749
SENTINEL-3A             
1 41335U 16011A   26192.76201894  .00000038  00000+0  33827-4 0  9999
2 41335  98.6238 259.7914 0001384  91.0983 269.0356 14.26739156541563
INSAT-3DR               
1 41752U 16054A   26192.65084797 -.00000072  00000+0  00000+0 0  9999
2 41752   0.0605  88.7847 0010633 181.6733 327.4091  1.00271979 36063
HIMAWARI-9              
1 41836U 16064A   26192.73542934  .00000000  00000+0  00000+0 0  9994
2 41836   0.0282  53.4120 0002220 125.6981 156.0455  1.00269257 35454
GOES 16                 
1 41866U 16071A   26192.68678000 -.00000086  00000+0  00000+0 0  9998
2 41866   0.3945  85.5118 0000527  98.4369 248.1937  1.00270883 35347
FENGYUN 4A              
1 41882U 16077A   26192.80329583 -.00000355  00000+0  00000+0 0  9994
2 41882   2.3813  80.0102 0008464 159.1276 103.5301  1.00270074 35176
CYGFM05                 
1 41884U 16078A   26192.15639308  .00016838  00000+0  21963-3 0  9991
2 41884  34.9563 101.7417 0006755 357.5838   2.4853 15.57723058532498
CYGFM04                 
1 41885U 16078B   26192.75274429  .00021642  00000+0  23093-3 0  9992
2 41885  34.9324  64.2027 0004624  45.5482 314.5622 15.62926906532849
CYGFM02                 
1 41886U 16078C   26192.70452129  .00025635  00000+0  24014-3 0  9993
2 41886  34.9405  58.3138 0005336  49.4230 310.6961 15.66171400533010
CYGFM01                 
1 41887U 16078D   26192.13437863  .00017706  00000+0  22476-3 0  9999
2 41887  34.9393 102.7463 0006722 350.7415   9.3185 15.58435350532449
CYGFM08                 
1 41888U 16078E   26192.75487169  .00019592  00000+0  22260-3 0  9998
2 41888  34.9429  77.5362 0006741  32.5096 327.6044 15.61316892532812
CYGFM07                 
1 41890U 16078G   26192.71242246  .00019869  00000+0  22491-3 0  9995
2 41890  34.9448  66.1394 0005036  45.9129 314.2011 15.61423322532831
CYGFM03                 
1 41891U 16078H   26192.74752116  .00019772  00000+0  22390-3 0  9992
2 41891  34.9402  67.8359 0005117  30.0259 330.0759 15.61412608532818
