OBJECT_NAME,OBJECT_ID,EPOCH,MEAN_MOTION,ECCENTRICITY,INCLINATION,RA_OF_ASC_NODE,ARG_OF_PERICENTER,MEAN_ANOMALY,EPHEMERIS_TYPE,CLASSIFICATION_TYPE,NORAD_CAT_ID,ELEMENT_SET_NO,REV_AT_EPOCH,BSTAR,MEAN_MOTION_DOT,MEAN_MOTION_DDOT
DMSP 5D-3 F16 (USA 172),2003-048A,2026-07-11T18:42:34.098048,14.14484847,.00081895,98.9887,216.7698,79.6240,334.6991,0,U,28054,999,17296,.6555656E-5,-.33E-6,0
METEOSAT-9 (MSG-2),2005-049B,2026-07-11T14:36:59.810112,1.00270356,.00020361,9.4142,53.9220,357.2351,143.2739,0,U,28912,999,724,0,.121E-5,0
DMSP 5D-3 F17 (USA 191),2006-050A,2026-07-11T16:57:20.217600,14.14995988,.00099442,98.7385,198.7754,353.0944,7.0091,0,U,29522,999,1589,.17725963E-4,-.9E-7,0
FENGYUN 3A,2008-026A,2026-07-11T18:53:17.524032,14.19576017,.00097549,98.6887,133.1606,60.6639,299.5511,0,U,32958,999,93889,.27582717E-4,.15E-6,0
GOES 14,2009-033A,2026-07-11T16:42:22.065408,1.00099857,.000188,1.7501,82.7380,39.9275,184.7708,0,U,35491,999,683,0,-.352E-5,0
DMSP 5D-3 F18 (USA 210),2009-057A,2026-07-11T18:00:11.543904,14.14910183,.00110192,98.9053,173.4677,175.1524,184.9758,0,U,35951,999,86306,.11123327E-3,.17E-5,0
EWS-G2 (GOES 15),2010-008A,2026-07-11T16:28:54.530400,1.00268167,.00052066,1.3422,82.5088,53.5810,104.0827,0,U,36411,999,5988,0,.26E-6,0
COMS 1,2010-032A,2026-07-11T08:19:04.481760,0.99168841,.00112649,4.8643,75.0643,14.7082,301.5980,0,U,36744,999,5132,0,-.239E-5,0
FENGYUN 3B,2010-059A,2026-07-11T18:50:04.685280,14.14846827,.00230603,98.9614,238.9018,115.8641,8.3407,0,U,37214,999,81090,.1388206E-3,.224E-5,0
SUOMI NPP,2011-061A,2026-07-11T19:10:48.055584,14.19522216,.00006128,98.7956,133.5077,236.8056,123.3061,0,U,37849,999,76193,.30711135E-4,.2E-6,0
METEOSAT-10 (MSG-3),2012-035B,2026-07-11T08:41:38.595264,1.00270079,.0001082,4.7262,60.8974,18.5599,340.2859,0,U,38552,999,5109,0,-.5E-7,0
METOP-B,2012-049A,2026-07-11T18:08:41.715168,14.21445767,.0001054,98.6491,243.7635,276.8826,83.2232,0,U,38771,999,71675,.40641383E-4,.46E-6,0
INSAT-3D,2013-038B,2026-07-11T17:11:06.604224,1.00270103,.00005047,1.9865,82.2311,83.8673,150.8211,0,U,39216,999,4732,0,-.336E-5,0
FENGYUN 3C,2013-052A,2026-07-11T18:42:27.781344,14.15760315,.00138183,98.4995,165.5271,316.4268,43.5815,0,U,39260,999,66204,.32625173E-4,.23E-6,0
METEOR-M 2,2014-037A,2026-07-11T18:46:09.202944,14.21467863,.000536,98.5124,167.6505,338.1234,21.9714,0,U,40069,999,62281,-.24241272E-4,-.95E-6,0
HIMAWARI-8,2014-060A,2026-07-11T17:38:53.606688,1.00272623,.00010458,0.0232,305.2214,223.4208,166.3807,0,U,40267,999,4300,0,-.271E-5,0
FENGYUN 2G,2014-090A,2026-07-11T16:20:27.671712,1.00261698,.00042559,5.6967,72.5183,151.8575,49.6342,0,U,40367,999,4224,0,-.299E-5,0
METEOSAT-11 (MSG-4),2015-034A,2026-07-11T15:18:49.322304,1.00270750,.00022465,3.2607,70.9573,352.6861,104.8543,0,U,40732,999,746,0,.63E-6,0
ELEKTRO-L 2,2015-074A,2026-07-11T10:04:03.448704,1.00272476,.00008885,6.7510,70.2237,218.2194,137.3884,0,U,41105,999,3874,0,-.118E-5,0
SENTINEL-3A,2016-011A,2026-07-11T18:17:18.436416,14.26739156,.00013846,98.6238,259.7914,91.0983,269.0356,0,U,41335,999,54156,.33827129E-4,.38E-6,0
INSAT-3DR,2016-054A,2026-07-11T15:37:13.264608,1.00271979,.00106334,0.0605,88.7847,181.6733,327.4091,0,U,41752,999,3606,0,-.72E-6,0
HIMAWARI-9,2016-064A,2026-07-11T17:39:01.094976,1.00269257,.00022204,0.0282,53.4120,125.6981,156.0455,0,U,41836,999,3545,0,0,0
GOES 16,2016-071A,2026-07-11T16:28:57.792000,1.00270883,.00005277,0.3945,85.5118,98.4369,248.1937,0,U,41866,999,3534,0,-.86E-6,0
FENGYUN 4A,2016-077A,2026-07-11T19:16:44.759712,1.00270074,.00084643,2.3813,80.0102,159.1276,103.5301,0,U,41882,999,3517,0,-.355E-5,0
CYGFM05,2016-078A,2026-07-11T03:45:12.362112,15.57723058,.00067558,34.9563,101.7417,357.5838,2.4853,0,U,41884,999,53249,.2196336E-3,.16838E-3,0
CYGFM04,2016-078B,2026-07-11T18:03:57.106656,15.62926906,.00046246,34.9324,64.2027,45.5482,314.5622,0,U,41885,999,53284,.23093498E-3,.21642E-3,0
CYGFM02,2016-078C,2026-07-11T16:54:30.639456,15.66171400,.00053362,34.9405,58.3138,49.4230,310.6961,0,U,41886,999,53301,.24014212E-3,.25635E-3,0
CYGFM01,2016-078D,2026-07-11T03:13:30.313632,15.58435350,.0006722,34.9393,102.7463,350.7415,9.3185,0,U,41887,999,53244,.22475995E-3,.17706E-3,0
CYGFM08,2016-078E,2026-07-11T18:07:00.914016,15.61316892,.00067416,34.9429,77.5362,32.5096,327.6044,0,U,41888,999,53281,.2226024E-3,.19592E-3,0
CYGFM07,2016-078G,2026-07-11T17:05:53.300544,15.61423322,.00050363,34.9448,66.1394,45.9129,314.2011,0,U,41890,999,53283,.22490626E-3,.19869E-3,0
CYGFM03,2016-078H,2026-07-11T17:56:25.828224,15.61412608,.00051175,34.9402,67.8359,30.0259,330.0759,0,U,41891,999,53281,.2238978E-3,.19772E-3,0
